OBJECT_NAME,OBJECT_ID,EPOCH,MEAN_MOTION,ECCENTRICITY,INCLINATION,RA_OF_ASC_NODE,ARG_OF_PERICENTER,MEAN_ANOMALY,EPHEMERIS_TYPE,CLASSIFICATION_TYPE,NORAD_CAT_ID,ELEMENT_SET_NO,REV_AT_EPOCH,BSTAR,MEAN_MOTION_DOT,MEAN_MOTION_DDOT
HST,1990-037B,2026-07-23T06:09:58.917888,15.31122099,.00019282,28.4721,193.9755,181.0239,179.0353,0,U,20580,999,79410,.17776468E-3,.5734E-4,0
POLAR,1996-013A,2026-07-22T11:13:53.823648,1.29845994,.65057993,79.9029,226.6327,207.8657,92.2145,0,U,23802,999,14531,0,.205E-5,0
SWAS,1998-071A,2026-07-23T06:11:50.728128,15.09787045,.0007303,69.8955,134.4871,220.7958,139.2660,0,U,25560,999,50271,.22616913E-3,.3559E-4,0
CXO,1999-040B,2026-07-25T09:38:07.358784,0.37796798,.77734611,56.6765,115.6641,309.9148,0.5404,0,U,25867,999,1746,0,.689E-5,0
XMM-NEWTON,1999-066A,2026-07-24T05:58:43.881600,0.50127611,.46637907,64.2866,282.5076,64.2318,0.0628,0,U,25989,999,2318,0,.48E-6,0
TERRA,1999-068A,2026-07-23T05:55:49.358784,14.61128256,.00036546,97.9435,252.3598,107.0530,328.4031,0,U,25994,999,41487,.72007717E-4,.31E-5,0
CLUSTER II-FM7 (SAMBA),2000-041A,2026-07-20T14:26:37.417344,0.44850593,.90917143,149.8020,56.9135,274.4939,359.4480,0,U,26410,999,2046,0,.10308E-3,-.3041523E-5
CLUSTER II-FM8 (TANGO),2000-045B,2026-07-21T04:55:41.336256,0.44430203,.90953978,149.9891,58.1984,275.6516,2.0945,0,U,26464,999,2046,0,.10745E-3,-.2733441E-5
ODIN,2001-007A,2026-07-23T02:24:14.604192,15.95596686,.00050553,97.3683,247.7807,166.7093,193.4318,0,U,26702,999,39508,.16549033E-2,.65663E-2,.18429313E-3
TIMED,2001-055B,2026-07-23T04:52:15.165984,14.95357692,.00023886,74.0675,162.4978,291.6566,68.4364,0,U,26998,999,33620,.10031036E-3,.1067E-4,0
CORIOLIS,2003-001A,2026-07-23T06:36:15.210720,14.19953572,.00151622,98.7140,210.6106,107.5660,252.7174,0,U,27640,999,21934,.66272621E-4,.97E-6,0
SORCE,2003-004A,2026-07-23T00:01:21.990144,15.03871955,.00185502,39.9919,57.3174,306.8692,53.0401,0,U,27651,999,27729,.17473819E-3,.2304E-4,0
MOST,2003-031D,2026-07-22T23:20:47.423904,14.21328910,.00105184,98.7056,211.2006,143.7284,216.4608,0,U,27843,999,19579,.45481984E-4,.56E-6,0
SCISAT 1,2003-036A,2026-07-23T03:37:20.428032,14.81485730,.00069524,73.9301,99.8879,165.8729,194.2643,0,U,27858,999,23677,.71490557E-4,.524E-5,0
SWIFT,2004-047A,2026-07-23T06:33:29.426400,15.71921998,.00026624,20.5517,265.7968,112.5963,247.4766,0,U,28485,999,19254,.45021127E-3,.6289E-3,0
HINODE (SOLAR-B),2006-041A,2026-07-23T00:32:00.409344,14.68665420,.00176842,98.0548,219.6469,169.5910,190.5665,0,U,29479,999,6013,.10227331E-3,.547E-5,0
SHIJIAN-6 02A (SJ-6 02A),2006-046A,2026-07-23T07:13:30.044352,15.17314794,.00037646,97.6351,245.6435,47.2116,312.9433,0,U,29505,999,7774,.32796142E-3,.6472E-4,0
SHIJIAN-6 02B (SJ-6 02B),2006-046B,2026-07-23T08:02:01.876416,15.01447975,.0012447,97.7145,233.1688,306.4718,53.5359,0,U,29506,999,7616,.82711068E-4,.1008E-4,0
FGRST (GLAST),2008-029A,2026-07-22T15:36:38.123136,15.24105653,.00082366,25.5828,318.2136,28.4048,331.6939,0,U,33053,999,110,.89461088E-4,.2575E-4,0
SDO,2010-005A,2026-07-23T04:25:30.449280,1.00277674,.00015772,34.7238,85.7942,45.7486,133.6301,0,U,36395,999,6042,0,-.101E-5,0
CRYOSAT 2,2010-013A,2026-07-23T06:21:01.899648,14.51899959,.00025133,92.0353,286.0721,98.7027,261.4465,0,U,36508,999,86331,.15978275E-4,.67E-6,0
X-SAT,2011-015C,2026-07-23T05:46:42.529728,14.25215517,.00128532,98.3539,179.5514,234.7032,125.2947,0,U,37389,999,79281,.33399673E-4,.37E-6,0
GCOM-W1 (SHIZUKU),2012-025A,2026-07-23T01:48:28.960416,14.57095220,.0001258,98.2024,144.0881,80.5144,294.2451,0,U,38337,999,75426,.90627123E-4,.363E-5,0
NUSTAR,2012-031A,2026-07-23T08:00:01.999872,15.09092913,.00091406,6.0265,122.9216,282.2745,138.7731,0,U,38358,999,130,.12464377E-2,.21297E-3,0
NEOSSAT,2013-009D,2026-07-23T05:41:44.229408,14.35837643,.00118748,98.4196,23.4161,134.7953,225.4200,0,U,39089,999,70191,.59959139E-4,.131E-5,0
BRITE-AUSTRIA,2013-009F,2026-07-23T00:13:00.491808,14.36554832,.00111494,98.4015,22.5617,129.2260,230.9918,0,U,39091,999,70219,.64070015E-4,.146E-5,0
IRIS,2013-033A,2026-07-23T02:58:55.656192,14.85948606,.00238882,97.9318,43.2879,198.1989,161.8374,0,U,39197,999,70571,.11174374E-3,.924E-5,0
HISAKI (SPRINT-A),2013-049A,2026-07-22T23:53:18.777408,13.55547201,.01369382,29.7218,37.9571,307.0762,51.7360,0,U,39253,999,63628,.36530757E-4,.92E-6,0
CASSIOPE,2013-055A,2026-07-23T05:01:10.590240,15.27705346,.02814763,80.9136,22.8700,300.6619,56.7142,0,U,39265,999,67316,.22139253E-3,.20653E-3,-.46464E-6
STSAT-3,2013-066G,2026-07-23T06:24:16.399872,15.02930363,.00087002,97.6222,173.5737,272.2072,87.8157,0,U,39422,999,68962,.38065781E-3,.5056E-4,0
