HST                     
1 20580U 90037B   26204.25693192  .00005734  00000+0  17776-3 0  9994
2 20580  28.4721 193.9755 0001928 181.0239 179.0353 15.31122099794106
POLAR                   
1 23802U 96013A   26203.46798407  .00000205  00000+0  00000+0 0  9997
2 23802  79.9029 226.6327 6505799 207.8657  92.2145  1.29845994145315
SWAS                    
1 25560U 98071A   26204.25822602  .00003559  00000+0  22617-3 0  9996
2 25560  69.8955 134.4871 0007303 220.7958 139.2660 15.09787045502714
CXO                     
1 25867U 99040B   26206.40147406  .00000689  00000+0  00000+0 0  9993
2 25867  56.6765 115.6641 7773461 309.9148   0.5404  0.37796798 17465
XMM-NEWTON              
1 25989U 99066A   26205.24911900  .00000048  00000+0  00000+0 0  9994
2 25989  64.2866 282.5076 4663790  64.2318   0.0628  0.50127611 23189
TERRA                   
1 25994U 99068A   26204.24709906  .00000310  00000+0  72008-4 0  9996
2 25994  97.9435 252.3598 0003654 107.0530 328.4031 14.61128256414877
CLUSTER II-FM7 (SAMBA)  
1 26410U 00041A   26201.60182196  .00010308 -30415-5  00000+0 0  9992
2 26410 149.8020  56.9135 9091714 274.4939 359.4480  0.44850593 20460
CLUSTER II-FM8 (TANGO)  
1 26464U 00045B   26202.20533954  .00010745 -27334-5  00000+0 0  9995
2 26464 149.9891  58.1984 9095397 275.6516   2.0945  0.44430203 20466
ODIN                    
1 26702U 01007A   26204.10016903  .00656630  18429-3  16549-2 0  9999
2 26702  97.3683 247.7807 0005055 166.7093 193.4318 15.95596686395081
TIMED                   
1 26998U 01055B   26204.20295331  .00001067  00000+0  10031-3 0  9995
2 26998  74.0675 162.4978 0002388 291.6566  68.4364 14.95357692336204
CORIOLIS                
1 27640U 03001A   26204.27517605  .00000097  00000+0  66273-4 0  9993
2 27640  98.7140 210.6106 0015162 107.5660 252.7174 14.19953572219349
SORCE                   
1 27651U 03004A   26204.00094896  .00002304  00000+0  17474-3 0  9992
2 27651  39.9919  57.3174 0018550 306.8692  53.0401 15.03871955277297
MOST                    
1 27843U 03031D   26203.97277111  .00000056  00000+0  45482-4 0  9996
2 27843  98.7056 211.2006 0010518 143.7284 216.4608 14.21328910195796
SCISAT 1                
1 27858U 03036A   26204.15093088  .00000524  00000+0  71491-4 0  9996
2 27858  73.9301  99.8879 0006952 165.8729 194.2643 14.81485730236770
SWIFT                   
1 28485U 04047A   26204.27325725  .00062890  00000+0  45021-3 0  9998
2 28485  20.5517 265.7968 0002662 112.5963 247.4766 15.71921998192544
HINODE (SOLAR-B)        
1 29479U 06041A   26204.02222696  .00000547  00000+0  10227-3 0  9995
2 29479  98.0548 219.6469 0017684 169.5910 190.5665 14.68665420 60135
SHIJIAN-6 02A (SJ-6 02A)
1 29505U 06046A   26204.30104218  .00006472  00000+0  32796-3 0  9998
2 29505  97.6351 245.6435 0003764  47.2116 312.9433 15.17314794 77746
SHIJIAN-6 02B (SJ-6 02B)
1 29506U 06046B   26204.33474394  .00001008  00000+0  82711-4 0  9990
2 29506  97.7145 233.1688 0012447 306.4718  53.5359 15.01447975 76168
FGRST (GLAST)           
1 33053U 08029A   26203.65044124  .00002575  00000+0  89461-4 0  9992
2 33053  25.5828 318.2136 0008236  28.4048 331.6939 15.24105653  1103
SDO                     
1 36395U 10005A   26204.18438020 -.00000101  00000+0  00000+0 0  9993
2 36395  34.7238  85.7942 0001577  45.7486 133.6301  1.00277674 60427
CRYOSAT 2               
1 36508U 10013A   26204.26460532  .00000067  00000+0  15978-4 0  9995
2 36508  92.0353 286.0721 0002513  98.7027 261.4465 14.51899959863315
X-SAT                   
1 37389U 11015C   26204.24077002  .00000037  00000+0  33400-4 0  9997
2 37389  98.3539 179.5514 0012853 234.7032 125.2947 14.25215517792811
GCOM-W1 (SHIZUKU)       
1 38337U 12025A   26204.07533519  .00000363  00000+0  90627-4 0  9990
2 38337  98.2024 144.0881 0001258  80.5144 294.2451 14.57095220754261
NUSTAR                  
1 38358U 12031A   26204.33335648  .00021297  00000+0  12464-2 0  9992
2 38358   6.0265 122.9216 0009140 282.2745 138.7731 15.09092913  1308
NEOSSAT                 
1 39089U 13009D   26204.23731747  .00000131  00000+0  59959-4 0  9995
2 39089  98.4196  23.4161 0011874 134.7953 225.4200 14.35837643701915
BRITE-AUSTRIA           
1 39091U 13009F   26204.00903347  .00000146  00000+0  64070-4 0  9996
2 39091  98.4015  22.5617 0011149 129.2260 230.9918 14.36554832702194
IRIS                    
1 39197U 13033A   26204.12425528  .00000924  00000+0  11174-3 0  9993
2 39197  97.9318  43.2879 0023888 198.1989 161.8374 14.85948606705716
HISAKI (SPRINT-A)       
1 39253U 13049A   26203.99535622  .00000092  00000+0  36531-4 0  9995
2 39253  29.7218  37.9571 0136938 307.0762  51.7360 13.55547201636280
CASSIOPE                
1 39265U 13055A   26204.20915035  .00020653 -46464-6  22139-3 0  9995
2 39265  80.9136  22.8700 0281476 300.6619  56.7142 15.27705346673164
STSAT-3                 
1 39422U 13066G   26204.26685648  .00005056  00000+0  38066-3 0  9996
2 39422  97.6222 173.5737 0008700 272.2072  87.8157 15.02930363689629
